{"type": "FeatureCollection", "features": [ {"type": "Feature", "properties": {"norad_id": 38067, "name": "COSMOS 2251 DEB", "group": "cosmos-2251-debris", "lat": -62.54536260153529, "lon": -100.8892251330362, "alt_km": 739.0104338223337, "timestamp": "2025-12-03T06:58:43.640114+00:00", "meta": {"OBJECT_NAME": "COSMOS 2251 DEB", "OBJECT_ID": "1993-036BRZ", "EPOCH": "2025-11-29T04:46:36.876288", "MEAN_MOTION": 14.61044936, "ECCENTRICITY": 0.00691529, "INCLINATION": 74.017, "RA_OF_ASC_NODE": 300.4181, "ARG_OF_PERICENTER": 91.9303, "MEAN_ANOMALY": 288.2542, "EPHEMERIS_TYPE": 0, "CLASSIFICATION_TYPE": "U", "NORAD_CAT_ID": 38067, "ELEMENT_SET_NO": 999, "REV_AT_EPOCH": 62358, "BSTAR": 0.00037425936, "MEAN_MOTION_DOT": 1.87e-05, "MEAN_MOTION_DDOT": 0}, "tle": {"line1": "1 38067U 93036BRZ 25333.19903792  .00001870  00000+0  37426-3 0  9991", "line2": "2 38067  74.0170 300.4181 0069152  91.9303 288.2542 14.61044936623583"}}, "geometry": {"type": "Point", "coordinates": [-100.8892251330362, -62.54536260153529]}}, {"type": "Feature", "properties": {"norad_id": 38068, "name": "COSMOS 2251 DEB", "group": "cosmos-2251-debris", "lat": -10.282172195046714, "lon": 148.58415976736646, "alt_km": 787.5427170304565, "timestamp": "2025-12-03T06:58:43.640125+00:00", "meta": {"OBJECT_NAME": "COSMOS 2251 DEB", "OBJECT_ID": "1993-036BSA", "EPOCH": "2025-11-26T00:12:22.263264", "MEAN_MOTION": 14.35960004, "ECCENTRICITY": 0.00240903, "INCLINATION": 74.0219, "RA_OF_ASC_NODE": 338.9788, "ARG_OF_PERICENTER": 72.1007, "MEAN_ANOMALY": 288.2769, "EPHEMERIS_TYPE": 0, "CLASSIFICATION_TYPE": "U", "NORAD_CAT_ID": 38068, "ELEMENT_SET_NO": 999, "REV_AT_EPOCH": 66406, "BSTAR": 0.00028750999, "MEAN_MOTION_DOT": 8.11e-06, "MEAN_MOTION_DDOT": 0}, "tle": {"line1": "1 38068U 93036BSA 25330.00859101  .00000811  00000+0  28751-3 0  9998", "line2": "2 38068  74.0219 338.9788 0024090  72.1007 288.2769 14.35960004664064"}}, "geometry": {"type": "Point", "coordinates": [148.58415976736646, -10.282172195046714]}}, {"type": "Feature", "properties": {"norad_id": 38197, "name": "COSMOS 2251 DEB", "group": "cosmos-2251-debris", "lat": -16.687213024719984, "lon": 10.639293562189305, "alt_km": 650.8800289437195, "timestamp": "2025-12-03T06:58:43.640134+00:00", "meta": {"OBJECT_NAME": "COSMOS 2251 DEB", "OBJECT_ID": "1993-036BSM", "EPOCH": "2025-11-30T20:22:30.930240", "MEAN_MOTION": 14.72855932, "ECCENTRICITY": 0.01292085, "INCLINATION": 73.9391, "RA_OF_ASC_NODE": 20.3775, "ARG_OF_PERICENTER": 260.5427, "MEAN_ANOMALY": 98.1121, "EPHEMERIS_TYPE": 0, "CLASSIFICATION_TYPE": "U", "NORAD_CAT_ID": 38197, "ELEMENT_SET_NO": 999, "REV_AT_EPOCH": 85580, "BSTAR": 0.0048480402, "MEAN_MOTION_DOT": 0.00035581, "MEAN_MOTION_DDOT": 0}, "tle": {"line1": "1 38197U 93036BSM 25334.84896910  .00035581  00000+0  48480-2 0  9998", "line2": "2 38197  73.9391  20.3775 0129208 260.5427  98.1121 14.72855932855808"}}, "geometry": {"type": "Point", "coordinates": [10.639293562189305, -16.687213024719984]}}, {"type": "Feature", "properties": {"norad_id": 38199, "name": "COSMOS 2251 DEB", "group": "cosmos-2251-debris", "lat": -43.75039849637837, "lon": -86.2966416352163, "alt_km": 1230.2058033426629, "timestamp": "2025-12-03T06:58:43.640144+00:00", "meta": {"OBJECT_NAME": "COSMOS 2251 DEB", "OBJECT_ID": "1993-036BSP", "EPOCH": "2025-12-01T15:09:45.800640", "MEAN_MOTION": 13.64774241, "ECCENTRICITY": 0.03692427, "INCLINATION": 73.9554, "RA_OF_ASC_NODE": 80.4375, "ARG_OF_PERICENTER": 9.1711, "MEAN_ANOMALY": 351.5903, "EPHEMERIS_TYPE": 0, "CLASSIFICATION_TYPE": "U", "NORAD_CAT_ID": 38199, "ELEMENT_SET_NO": 999, "REV_AT_EPOCH": 60870, "BSTAR": 0.00044539918, "MEAN_MOTION_DOT": 5.49e-06, "MEAN_MOTION_DDOT": 0}, "tle": {"line1": "1 38199U 93036BSP 25335.63178010  .00000549  00000+0  44540-3 0  9992", "line2": "2 38199  73.9554  80.4375 0369242   9.1711 351.5903 13.64774241608703"}}, "geometry": {"type": "Point", "coordinates": [-86.2966416352163, -43.75039849637837]}}, {"type": "Feature", "properties": {"norad_id": 38208, "name": "COSMOS 2251 DEB", "group": "cosmos-2251-debris", "lat": -46.52229045635329, "lon": 80.05513226230883, "alt_km": 627.3549779389714, "timestamp": "2025-12-03T06:58:43.640154+00:00", "meta": {"OBJECT_NAME": "COSMOS 2251 DEB", "OBJECT_ID": "1993-036BSY", "EPOCH": "2025-12-02T15:06:31.372992", "MEAN_MOTION": 14.83188605, "ECCENTRICITY": 0.00039653, "INCLINATION": 74.0061, "RA_OF_ASC_NODE": 98.9729, "ARG_OF_PERICENTER": 183.0621, "MEAN_ANOMALY": 198.654, "EPHEMERIS_TYPE": 0, "CLASSIFICATION_TYPE": "U", "NORAD_CAT_ID": 38208, "ELEMENT_SET_NO": 999, "REV_AT_EPOCH": 71009, "BSTAR": 0.003692922, "MEAN_MOTION_DOT": 0.0003026, "MEAN_MOTION_DDOT": 0}, "tle": {"line1": "1 38208U 93036BSY 25336.62952978  .00030260  00000+0  36929-2 0  9990", "line2": "2 38208  74.0061  98.9729 0003965 183.0621 198.6540 14.83188605710093"}}, "geometry": {"type": "Point", "coordinates": [80.05513226230883, -46.52229045635329]}}, {"type": "Feature", "properties": {"norad_id": 38212, "name": "COSMOS 2251 DEB", "group": "cosmos-2251-debris", "lat": 69.5558420121619, "lon": -134.97118201233175, "alt_km": 598.804351294697, "timestamp": "2025-12-03T06:58:43.640164+00:00", "meta": {"OBJECT_NAME": "COSMOS 2251 DEB", "OBJECT_ID": "1993-036BTC", "EPOCH": "2025-11-30T02:08:11.826528", "MEAN_MOTION": 14.77531577, "ECCENTRICITY": 0.00935039, "INCLINATION": 74.0506, "RA_OF_ASC_NODE": 101.4043, "ARG_OF_PERICENTER": 172.1987, "MEAN_ANOMALY": 188.0671, "EPHEMERIS_TYPE": 0, "CLASSIFICATION_TYPE": "U", "NORAD_CAT_ID": 38212, "ELEMENT_SET_NO": 999, "REV_AT_EPOCH": 81123, "BSTAR": 0.000758158, "MEAN_MOTION_DOT": 5.788e-05, "MEAN_MOTION_DDOT": 0}, "tle": {"line1": "1 38212U 93036BTC 25334.08902577  .00005788  00000+0  75816-3 0  9999", "line2": "2 38212  74.0506 101.4043 0093503 172.1987 188.0671 14.77531577811231"}}, "geometry": {"type": "Point", "coordinates": [-134.97118201233175, 69.5558420121619]}}, {"type": "Feature", "properties": {"norad_id": 38220, "name": "COSMOS 2251 DEB", "group": "cosmos-2251-debris", "lat": 65.4022820453599, "lon": -131.47172690149068, "alt_km": 582.7056378849284, "timestamp": "2025-12-03T06:58:43.640175+00:00", "meta": {"OBJECT_NAME": "COSMOS 2251 DEB", "OBJECT_ID": "1993-036BTL", "EPOCH": "2025-12-02T14:23:55.852800", "MEAN_MOTION": 14.91852197, "ECCENTRICITY": 0.0003685, "INCLINATION": 74.0146, "RA_OF_ASC_NODE": 88.6858, "ARG_OF_PERICENTER": 99.6245, "MEAN_ANOMALY": 260.5354, "EPHEMERIS_TYPE": 0, "CLASSIFICATION_TYPE": "U", "NORAD_CAT_ID": 38220, "ELEMENT_SET_NO": 999, "REV_AT_EPOCH": 71219, "BSTAR": 0.0045511067, "MEAN_MOTION_DOT": 0.00046254, "MEAN_MOTION_DDOT": 0}, "tle": {"line1": "1 38220U 93036BTL 25336.59995200  .00046254  00000+0  45511-2 0  9992", "line2": "2 38220  74.0146  88.6858 0003685  99.6245 260.5354 14.91852197712191"}}, "geometry": {"type": "Point", "coordinates": [-131.47172690149068, 65.4022820453599]}}, {"type": "Feature", "properties": {"norad_id": 38479, "name": "COSMOS 2251 DEB", "group": "cosmos-2251-debris", "lat": -70.19666407166444, "lon": 148.94356667979037, "alt_km": 718.7639084513685, "timestamp": "2025-12-03T06:58:43.640185+00:00", "meta": {"OBJECT_NAME": "COSMOS 2251 DEB", "OBJECT_ID": "1993-036BTP", "EPOCH": "2025-11-15T12:46:06.719808", "MEAN_MOTION": 14.37875238, "ECCENTRICITY": 0.00846922, "INCLINATION": 74.0077, "RA_OF_ASC_NODE": 234.4912, "ARG_OF_PERICENTER": 348.2771, "MEAN_ANOMALY": 195.3627, "EPHEMERIS_TYPE": 0, "CLASSIFICATION_TYPE": "U", "NORAD_CAT_ID": 38479, "ELEMENT_SET_NO": 999, "REV_AT_EPOCH": 64296, "BSTAR": 0.00281077, "MEAN_MOTION_DOT": 8.824e-05, "MEAN_MOTION_DDOT": 0}, "tle": {"line1": "1 38479U 93036BTP 25319.53202222  .00008824  00000+0  28108-2 0  9992", "line2": "2 38479  74.0077 234.4912 0084692 348.2771 195.3627 14.37875238642962"}}, "geometry": {"type": "Point", "coordinates": [148.94356667979037, -70.19666407166444]}}, {"type": "Feature", "properties": {"norad_id": 38481, "name": "COSMOS 2251 DEB", "group": "cosmos-2251-debris", "lat": -36.80876885043744, "lon": -143.65715901685473, "alt_km": 965.4825928576502, "timestamp": "2025-12-03T06:58:43.640195+00:00", "meta": {"OBJECT_NAME": "COSMOS 2251 DEB", "OBJECT_ID": "1993-036BTR", "EPOCH": "2025-11-30T21:06:34.190496", "MEAN_MOTION": 13.94733975, "ECCENTRICITY": 0.02337783, "INCLINATION": 73.9329, "RA_OF_ASC_NODE": 28.0528, "ARG_OF_PERICENTER": 330.587, "MEAN_ANOMALY": 28.2266, "EPHEMERIS_TYPE": 0, "CLASSIFICATION_TYPE": "U", "NORAD_CAT_ID": 38481, "ELEMENT_SET_NO": 999, "REV_AT_EPOCH": 58895, "BSTAR": 0.0013592661, "MEAN_MOTION_DOT": 2.261e-05, "MEAN_MOTION_DDOT": 0}, "tle": {"line1": "1 38481U 93036BTR 25334.87956239  .00002261  00000+0  13593-2 0  9994", "line2": "2 38481  73.9329  28.0528 0233778 330.5870  28.2266 13.94733975588952"}}, "geometry": {"type": "Point", "coordinates": [-143.65715901685473, -36.80876885043744]}}, {"type": "Feature", "properties": {"norad_id": 38483, "name": "COSMOS 2251 DEB", "group": "cosmos-2251-debris", "lat": -65.2051875726524, "lon": -113.72206032882792, "alt_km": 833.8031524521493, "timestamp": "2025-12-03T06:58:43.640205+00:00", "meta": {"OBJECT_NAME": "COSMOS 2251 DEB", "OBJECT_ID": "1993-036BTT", "EPOCH": "2025-11-30T10:35:51.419040", "MEAN_MOTION": 14.2869489, "ECCENTRICITY": 0.01113545, "INCLINATION": 74.2627, "RA_OF_ASC_NODE": 33.7569, "ARG_OF_PERICENTER": 143.1875, "MEAN_ANOMALY": 217.699, "EPHEMERIS_TYPE": 0, "CLASSIFICATION_TYPE": "U", "NORAD_CAT_ID": 38483, "ELEMENT_SET_NO": 999, "REV_AT_EPOCH": 63302, "BSTAR": 0.00092192588, "MEAN_MOTION_DOT": 2.455e-05, "MEAN_MOTION_DDOT": 0}, "tle": {"line1": "1 38483U 93036BTT 25334.44156735  .00002455  00000+0  92193-3 0  9991", "line2": "2 38483  74.2627  33.7569 0111354 143.1875 217.6990 14.28694890633022"}}, "geometry": {"type": "Point", "coordinates": [-113.72206032882792, -65.2051875726524]}}]}